[{"OBJECT_NAME":"ONEWEB-0102","OBJECT_ID":"2020-100A","EPOCH":"2025-07-30T02:36:56.568384","MEAN_MOTION":13.12441341,"ECCENTRICITY":0.0001658,"INCLINATION":87.885,"RA_OF_ASC_NODE":54.7156,"ARG_OF_PERICENTER":82.1934,"MEAN_ANOMALY":277.9383,"EPHEMERIS_TYPE":0,"CLASSIFICATION_TYPE":"U","NORAD_CAT_ID":47258,"ELEMENT_SET_NO":999,"REV_AT_EPOCH":22248,"BSTAR":0.00035646,"MEAN_MOTION_DOT":1.41e-6,"MEAN_MOTION_DDOT":0},{"OBJECT_NAME":"ONEWEB-0109","OBJECT_ID":"2020-100B","EPOCH":"2025-07-30T00:58:50.652192","MEAN_MOTION":13.12440762,"ECCENTRICITY":0.0001717,"INCLINATION":87.8851,"RA_OF_ASC_NODE":54.6992,"ARG_OF_PERICENTER":81.8125,"MEAN_ANOMALY":278.3199,"EPHEMERIS_TYPE":0,"CLASSIFICATION_TYPE":"U","NORAD_CAT_ID":47259,"ELEMENT_SET_NO":999,"REV_AT_EPOCH":22230,"BSTAR":-0.00037978,"MEAN_MOTION_DOT":-1.24e-6,"MEAN_MOTION_DDOT":0},{"OBJECT_NAME":"ONEWEB-0110","OBJECT_ID":"2020-100C","EPOCH":"2025-07-30T01:36:12.980160","MEAN_MOTION":13.12443657,"ECCENTRICITY":0.0002018,"INCLINATION":87.8855,"RA_OF_ASC_NODE":54.6766,"ARG_OF_PERICENTER":82.3324,"MEAN_ANOMALY":277.8034,"EPHEMERIS_TYPE":0,"CLASSIFICATION_TYPE":"U","NORAD_CAT_ID":47260,"ELEMENT_SET_NO":999,"REV_AT_EPOCH":22247,"BSTAR":-0.00068126,"MEAN_MOTION_DOT":-2.32e-6,"MEAN_MOTION_DDOT":0},{"OBJECT_NAME":"ONEWEB-0111","OBJECT_ID":"2020-100D","EPOCH":"2025-07-29T22:41:02.068512","MEAN_MOTION":13.12442625,"ECCENTRICITY":0.0001728,"INCLINATION":87.8853,"RA_OF_ASC_NODE":54.7168,"ARG_OF_PERICENTER":84.7355,"MEAN_ANOMALY":275.397,"EPHEMERIS_TYPE":0,"CLASSIFICATION_TYPE":"U","NORAD_CAT_ID":47261,"ELEMENT_SET_NO":999,"REV_AT_EPOCH":22229,"BSTAR":0.0014147,"MEAN_MOTION_DOT":5.22e-6,"MEAN_MOTION_DDOT":0},{"OBJECT_NAME":"ONEWEB-0114","OBJECT_ID":"2020-100E","EPOCH":"2025-07-29T19:45:49.574016","MEAN_MOTION":13.12442846,"ECCENTRICITY":0.0001471,"INCLINATION":87.8844,"RA_OF_ASC_NODE":54.739,"ARG_OF_PERICENTER":79.2822,"MEAN_ANOMALY":280.8472,"EPHEMERIS_TYPE":0,"CLASSIFICATION_TYPE":"U","NORAD_CAT_ID":47262,"ELEMENT_SET_NO":999,"REV_AT_EPOCH":22223,"BSTAR":-0.0015697,"MEAN_MOTION_DOT":-5.52e-6,"MEAN_MOTION_DDOT":0},{"OBJECT_NAME":"ONEWEB-0117","OBJECT_ID":"2020-100F","EPOCH":"2025-07-29T19:34:09.953472","MEAN_MOTION":13.12442367,"ECCENTRICITY":0.0001784,"INCLINATION":87.8857,"RA_OF_ASC_NODE":54.7343,"ARG_OF_PERICENTER":85.9333,"MEAN_ANOMALY":274.2,"EPHEMERIS_TYPE":0,"CLASSIFICATION_TYPE":"U","NORAD_CAT_ID":47263,"ELEMENT_SET_NO":999,"REV_AT_EPOCH":22224,"BSTAR":-0.00070855,"MEAN_MOTION_DOT":-2.42e-6,"MEAN_MOTION_DDOT":0},{"OBJECT_NAME":"ONEWEB-0118","OBJECT_ID":"2020-100G","EPOCH":"2025-07-29T20:20:53.396736","MEAN_MOTION":13.12443297,"ECCENTRICITY":0.00014,"INCLINATION":87.8855,"RA_OF_ASC_NODE":54.728,"ARG_OF_PERICENTER":89.8615,"MEAN_ANOMALY":270.2674,"EPHEMERIS_TYPE":0,"CLASSIFICATION_TYPE":"U","NORAD_CAT_ID":47264,"ELEMENT_SET_NO":999,"REV_AT_EPOCH":22244,"BSTAR":0.00040925,"MEAN_MOTION_DOT":1.6e-6,"MEAN_MOTION_DDOT":0},{"OBJECT_NAME":"ONEWEB-0119","OBJECT_ID":"2020-100H","EPOCH":"2025-07-29T22:50:23.221824","MEAN_MOTION":13.12442207,"ECCENTRICITY":0.0001755,"INCLINATION":87.8853,"RA_OF_ASC_NODE":54.7467,"ARG_OF_PERICENTER":83.9588,"MEAN_ANOMALY":276.174,"EPHEMERIS_TYPE":0,"CLASSIFICATION_TYPE":"U","NORAD_CAT_ID":47265,"ELEMENT_SET_NO":999,"REV_AT_EPOCH":22243,"BSTAR":0.00075605,"MEAN_MOTION_DOT":2.85e-6,"MEAN_MOTION_DDOT":0},{"OBJECT_NAME":"ONEWEB-0120","OBJECT_ID":"2020-100J","EPOCH":"2025-07-29T19:43:43.460256","MEAN_MOTION":13.12441923,"ECCENTRICITY":0.000165,"INCLINATION":87.8862,"RA_OF_ASC_NODE":54.7695,"ARG_OF_PERICENTER":83.7182,"MEAN_ANOMALY":276.4134,"EPHEMERIS_TYPE":0,"CLASSIFICATION_TYPE":"U","NORAD_CAT_ID":47266,"ELEMENT_SET_NO":999,"REV_AT_EPOCH":22244,"BSTAR":-0.0011848,"MEAN_MOTION_DOT":-4.13e-6,"MEAN_MOTION_DDOT":0},{"OBJECT_NAME":"ONEWEB-0121","OBJECT_ID":"2020-100K","EPOCH":"2025-07-29T19:27:11.019744","MEAN_MOTION":13.12441529,"ECCENTRICITY":0.000184,"INCLINATION":87.8855,"RA_OF_ASC_NODE":54.7416,"ARG_OF_PERICENTER":84.7733,"MEAN_ANOMALY":275.3605,"EPHEMERIS_TYPE":0,"CLASSIFICATION_TYPE":"U","NORAD_CAT_ID":47267,"ELEMENT_SET_NO":999,"REV_AT_EPOCH":22235,"BSTAR":-0.00039511,"MEAN_MOTION_DOT":-1.29e-6,"MEAN_MOTION_DDOT":0},{"OBJECT_NAME":"ONEWEB-0122","OBJECT_ID":"2020-100L","EPOCH":"2025-07-29T19:19:57.664128","MEAN_MOTION":13.12442214,"ECCENTRICITY":0.0001774,"INCLINATION":87.8851,"RA_OF_ASC_NODE":54.7465,"ARG_OF_PERICENTER":80.3267,"MEAN_ANOMALY":279.8062,"EPHEMERIS_TYPE":0,"CLASSIFICATION_TYPE":"U","NORAD_CAT_ID":47268,"ELEMENT_SET_NO":999,"REV_AT_EPOCH":22226,"BSTAR":0.00013776,"MEAN_MOTION_DOT":6.2e-7,"MEAN_MOTION_DDOT":0},{"OBJECT_NAME":"ONEWEB-0123","OBJECT_ID":"2020-100M","EPOCH":"2025-07-30T02:32:16.855296","MEAN_MOTION":13.12442147,"ECCENTRICITY":0.0001661,"INCLINATION":87.885,"RA_OF_ASC_NODE":54.7142,"ARG_OF_PERICENTER":87.4717,"MEAN_ANOMALY":272.6601,"EPHEMERIS_TYPE":0,"CLASSIFICATION_TYPE":"U","NORAD_CAT_ID":47269,"ELEMENT_SET_NO":999,"REV_AT_EPOCH":22244,"BSTAR":0.00064314,"MEAN_MOTION_DOT":2.44e-6,"MEAN_MOTION_DDOT":0},{"OBJECT_NAME":"ONEWEB-0124","OBJECT_ID":"2020-100N","EPOCH":"2025-07-30T02:15:55.632096","MEAN_MOTION":13.12441987,"ECCENTRICITY":0.0001916,"INCLINATION":87.8857,"RA_OF_ASC_NODE":54.7155,"ARG_OF_PERICENTER":89.0838,"MEAN_ANOMALY":271.051,"EPHEMERIS_TYPE":0,"CLASSIFICATION_TYPE":"U","NORAD_CAT_ID":47270,"ELEMENT_SET_NO":999,"REV_AT_EPOCH":22232,"BSTAR":0.0012123,"MEAN_MOTION_DOT":4.49e-6,"MEAN_MOTION_DDOT":0},{"OBJECT_NAME":"ONEWEB-0125","OBJECT_ID":"2020-100P","EPOCH":"2025-07-29T20:13:52.530240","MEAN_MOTION":13.12443994,"ECCENTRICITY":0.0001735,"INCLINATION":87.8861,"RA_OF_ASC_NODE":54.7291,"ARG_OF_PERICENTER":94.8939,"MEAN_ANOMALY":265.2388,"EPHEMERIS_TYPE":0,"CLASSIFICATION_TYPE":"U","NORAD_CAT_ID":47271,"ELEMENT_SET_NO":999,"REV_AT_EPOCH":22235,"BSTAR":-0.00012317,"MEAN_MOTION_DOT":-3.2e-7,"MEAN_MOTION_DDOT":0},{"OBJECT_NAME":"ONEWEB-0126","OBJECT_ID":"2020-100Q","EPOCH":"2025-07-29T22:34:14.467008","MEAN_MOTION":13.12443556,"ECCENTRICITY":0.0001671,"INCLINATION":87.8869,"RA_OF_ASC_NODE":54.7274,"ARG_OF_PERICENTER":83.5146,"MEAN_ANOMALY":276.6173,"EPHEMERIS_TYPE":0,"CLASSIFICATION_TYPE":"U","NORAD_CAT_ID":47272,"ELEMENT_SET_NO":999,"REV_AT_EPOCH":22243,"BSTAR":0.0013562,"MEAN_MOTION_DOT":5.01e-6,"MEAN_MOTION_DDOT":0},{"OBJECT_NAME":"ONEWEB-0127","OBJECT_ID":"2020-100R","EPOCH":"2025-07-30T03:14:18.422016","MEAN_MOTION":13.12443305,"ECCENTRICITY":0.0001711,"INCLINATION":87.8862,"RA_OF_ASC_NODE":54.704,"ARG_OF_PERICENTER":80.9709,"MEAN_ANOMALY":279.1613,"EPHEMERIS_TYPE":0,"CLASSIFICATION_TYPE":"U","NORAD_CAT_ID":47273,"ELEMENT_SET_NO":999,"REV_AT_EPOCH":22248,"BSTAR":-0.0012281,"MEAN_MOTION_DOT":-4.29e-6,"MEAN_MOTION_DDOT":0},{"OBJECT_NAME":"ONEWEB-0128","OBJECT_ID":"2020-100S","EPOCH":"2025-07-30T01:57:14.354496","MEAN_MOTION":13.12443198,"ECCENTRICITY":0.0001914,"INCLINATION":87.8855,"RA_OF_ASC_NODE":54.7415,"ARG_OF_PERICENTER":79.4431,"MEAN_ANOMALY":280.6914,"EPHEMERIS_TYPE":0,"CLASSIFICATION_TYPE":"U","NORAD_CAT_ID":47274,"ELEMENT_SET_NO":999,"REV_AT_EPOCH":22249,"BSTAR":0.00059176,"MEAN_MOTION_DOT":2.26e-6,"MEAN_MOTION_DDOT":0},{"OBJECT_NAME":"ONEWEB-0129","OBJECT_ID":"2020-100T","EPOCH":"2025-07-30T01:26:51.919296","MEAN_MOTION":13.1244328,"ECCENTRICITY":0.000117,"INCLINATION":87.886,"RA_OF_ASC_NODE":54.6883,"ARG_OF_PERICENTER":42.7304,"MEAN_ANOMALY":317.3916,"EPHEMERIS_TYPE":0,"CLASSIFICATION_TYPE":"U","NORAD_CAT_ID":47275,"ELEMENT_SET_NO":999,"REV_AT_EPOCH":22242,"BSTAR":-0.0010229,"MEAN_MOTION_DOT":-3.55e-6,"MEAN_MOTION_DDOT":0},{"OBJECT_NAME":"ONEWEB-0130","OBJECT_ID":"2020-100U","EPOCH":"2025-07-30T02:06:34.866720","MEAN_MOTION":13.12445468,"ECCENTRICITY":0.0001782,"INCLINATION":87.8847,"RA_OF_ASC_NODE":54.6828,"ARG_OF_PERICENTER":81.9938,"MEAN_ANOMALY":278.1393,"EPHEMERIS_TYPE":0,"CLASSIFICATION_TYPE":"U","NORAD_CAT_ID":47276,"ELEMENT_SET_NO":999,"REV_AT_EPOCH":22239,"BSTAR":0.00095293,"MEAN_MOTION_DOT":3.56e-6,"MEAN_MOTION_DDOT":0},{"OBJECT_NAME":"ONEWEB-0131","OBJECT_ID":"2020-100V","EPOCH":"2025-07-29T20:32:34.541376","MEAN_MOTION":13.12443468,"ECCENTRICITY":0.0001848,"INCLINATION":87.8853,"RA_OF_ASC_NODE":54.7558,"ARG_OF_PERICENTER":84.5788,"MEAN_ANOMALY":275.5551,"EPHEMERIS_TYPE":0,"CLASSIFICATION_TYPE":"U","NORAD_CAT_ID":47277,"ELEMENT_SET_NO":999,"REV_AT_EPOCH":22240,"BSTAR":0.00094287,"MEAN_MOTION_DOT":3.52e-6,"MEAN_MOTION_DDOT":0},{"OBJECT_NAME":"ONEWEB-0132","OBJECT_ID":"2020-100W","EPOCH":"2025-07-29T19:24:49.592448","MEAN_MOTION":13.12442105,"ECCENTRICITY":0.0001886,"INCLINATION":87.8858,"RA_OF_ASC_NODE":54.7675,"ARG_OF_PERICENTER":90.6056,"MEAN_ANOMALY":269.5289,"EPHEMERIS_TYPE":0,"CLASSIFICATION_TYPE":"U","NORAD_CAT_ID":47278,"ELEMENT_SET_NO":999,"REV_AT_EPOCH":22229,"BSTAR":-0.00026207,"MEAN_MOTION_DOT":-8.2e-7,"MEAN_MOTION_DDOT":0},{"OBJECT_NAME":"ONEWEB-0133","OBJECT_ID":"2020-100X","EPOCH":"2025-07-29T14:18:38.049408","MEAN_MOTION":13.12443355,"ECCENTRICITY":0.0001914,"INCLINATION":87.8846,"RA_OF_ASC_NODE":54.7848,"ARG_OF_PERICENTER":83.4392,"MEAN_ANOMALY":276.6955,"EPHEMERIS_TYPE":0,"CLASSIFICATION_TYPE":"U","NORAD_CAT_ID":47279,"ELEMENT_SET_NO":999,"REV_AT_EPOCH":22242,"BSTAR":-0.0011297,"MEAN_MOTION_DOT":-3.94e-6,"MEAN_MOTION_DDOT":0},{"OBJECT_NAME":"ONEWEB-0134","OBJECT_ID":"2020-100Y","EPOCH":"2025-07-29T22:43:21.986400","MEAN_MOTION":13.1244124,"ECCENTRICITY":0.0001819,"INCLINATION":87.8849,"RA_OF_ASC_NODE":54.6985,"ARG_OF_PERICENTER":77.2978,"MEAN_ANOMALY":282.8353,"EPHEMERIS_TYPE":0,"CLASSIFICATION_TYPE":"U","NORAD_CAT_ID":47280,"ELEMENT_SET_NO":999,"REV_AT_EPOCH":22244,"BSTAR":0.00079819,"MEAN_MOTION_DOT":3.0e-6,"MEAN_MOTION_DDOT":0},{"OBJECT_NAME":"ONEWEB-0135","OBJECT_ID":"2020-100Z","EPOCH":"2025-07-29T20:11:32.369568","MEAN_MOTION":13.12443595,"ECCENTRICITY":0.0002048,"INCLINATION":87.8854,"RA_OF_ASC_NODE":54.7585,"ARG_OF_PERICENTER":74.8518,"MEAN_ANOMALY":285.2837,"EPHEMERIS_TYPE":0,"CLASSIFICATION_TYPE":"U","NORAD_CAT_ID":47281,"ELEMENT_SET_NO":999,"REV_AT_EPOCH":22245,"BSTAR":-0.00041768,"MEAN_MOTION_DOT":-1.38e-6,"MEAN_MOTION_DDOT":0}]
